GLOBALSTAR M045         
1 25676U 99019A   25344.53228411 -.00000075  00000+0  16097-3 0  9996
2 25676  51.9937 162.6444 0001075 105.2341 290.0174 12.27070365215046
GLOBALSTAR M019         
1 25677U 99019B   25344.22232340 -.00000055  00000+0  36346-3 0  9996
2 25677  51.9889 306.2825 0001516 335.0380  43.1700 12.13875779206520
GLOBALSTAR M044         
1 25678U 99019C   25344.55982803 -.00000036  00000+0  66250-3 0  9995
2 25678  51.9981 278.7689 0006714  21.5382 150.8498 11.90261023192326
GLOBALSTAR M042         
1 25679U 99019D   25343.52590015 -.00000043  00000+0  46371-3 0  9992
2 25679  52.0022 275.9648 0002895 315.2009 216.3536 12.22093526206698
GLOBALSTAR M025         
1 25770U 99031A   25344.60261470 -.00000052  00000+0  48124-3 0  9996
2 25770  51.9806 110.5890 0003092  89.3052 283.5875 11.22558749501522
GLOBALSTAR M049         
1 25771U 99031B   25344.42666677 -.00000114  00000+0 -17001-2 0  9994
2 25771  51.9840 154.6183 0002122 333.6528  26.4160 11.12124218137032
GLOBALSTAR M047         
1 25772U 99031C   25343.70463443 -.00000075  00000+0 -14299-3 0  9994
2 25772  51.9802 136.4538 0016205 199.9977 160.0195 11.31931772490982
GLOBALSTAR M052         
1 25773U 99031D   25344.49558258 -.00000067  00000+0 -32357-4 0  9998
2 25773  51.9870 260.6581 0003212  89.9206  80.7842 11.15062576498178
